[{"OBJECT_NAME":"STARLINK-33717","OBJECT_ID":"2025-083Q","EPOCH":"2026-03-09T06:12:46.435392","MEAN_MOTION":15.27664986,"ECCENTRICITY":0.00020518,"INCLINATION":43.0011,"RA_OF_ASC_NODE":7.414,"ARG_OF_PERICENTER":263.1634,"MEAN_ANOMALY":96.8984,"EPHEMERIS_TYPE":0,"CLASSIFICATION_TYPE":"U","NORAD_CAT_ID":63648,"ELEMENT_SET_NO":999,"REV_AT_EPOCH":5000,"BSTAR":0.0016466494,"MEAN_MOTION_DOT":0.00045449,"MEAN_MOTION_DDOT":0},{"OBJECT_NAME":"CZ-6A DEB","OBJECT_ID":"2022-151ME","EPOCH":"2026-03-09T17:07:50.636064","MEAN_MOTION":15.20556855,"ECCENTRICITY":0.00283971,"INCLINATION":98.6182,"RA_OF_ASC_NODE":149.2426,"ARG_OF_PERICENTER":178.5587,"MEAN_ANOMALY":181.5732,"EPHEMERIS_TYPE":0,"CLASSIFICATION_TYPE":"U","NORAD_CAT_ID":54578,"ELEMENT_SET_NO":999,"REV_AT_EPOCH":10518,"BSTAR":0.0077423675,"MEAN_MOTION_DOT":0.00175116,"MEAN_MOTION_DDOT":0}]
